NORAD_CAT_ID,OBJECT_NAME,OBJECT_TYPE,EPOCH,MEAN_MOTION,ECCENTRICITY,INCLINATION,RA_OF_ASC_NODE,ARG_OF_PERICENTER,MEAN_ANOMALY,BSTAR,MEAN_MOTION_DOT,MEAN_MOTION_DDOT,TLE_LINE0,TLE_LINE1,TLE_LINE2,SEMIMAJOR_AXIS,PERIOD,APOGEE,PERIGEE,DECAYED
49139.0,STARLINK-3057,PAYLOAD,2022-12-25 09:05:58,14.98340202,0.0003134,70.0,325.2313,271.2826,88.7974,-1.9699e-08,-9.3e-07,0.0,0 STARLINK-3057,1 49139U 21082K   22359.37914748 -.00000093  00000-0 -19699-7 0  9998,2 49139  70.0000 325.2313 0003134 271.2826  88.7974 14.98340202 71669,6950.161,96.106,574.205,569.8480000000002,0.0
49139.0,STARLINK-3057,PAYLOAD,2022-12-26 04:19:35,14.98328954,0.0002921,69.9999,323.2116,271.2741,88.8083,-5.1569e-05,-7.08e-06,0.0,0 STARLINK-3057,1 49139U 21082K   22360.18027605 -.00000708  00000-0 -51569-4 0  9998,2 49139  69.9999 323.2116 0002921 271.2741  88.8083 14.98328954 71786,6950.196,96.107,574.091,570.031,0.0
49139.0,STARLINK-3057,PAYLOAD,2022-12-26 15:32:31,14.98330274,0.0002676,70.0008,322.0323,260.9869,99.0987,6.811600000000001e-05,7.200000000000001e-06,0.0,0 STARLINK-3057,1 49139U 21082K   22360.64759252  .00000720  00000-0  68116-4 0  9997,2 49139  70.0008 322.0323 0002676 260.9869  99.0987 14.98330274 71853,6950.191999999999,96.107,573.9169999999998,570.197,0.0
49139.0,STARLINK-3057,PAYLOAD,2022-12-27 04:21:35,14.98343099,0.0002988,70.0,320.6857,270.5208,89.5609,0.00017443,1.99e-05,0.0,0 STARLINK-3057,1 49139U 21082K   22361.18165918  .00001990  00000-0  17443-3 0  9993,2 49139  70.0000 320.6857 0002988 270.5208  89.5609 14.98343099 71934,6950.151999999999,96.106,574.094,569.941,0.0
49139.0,STARLINK-3057,PAYLOAD,2022-12-27 07:33:51,14.98338548,0.0003171,69.9996,320.3493,271.345,88.7346,0.00012812,1.436e-05,0.0,0 STARLINK-3057,1 49139U 21082K   22361.31518253  .00001436  00000-0  12812-3 0  9992,2 49139  69.9996 320.3493 0003171 271.3450  88.7346 14.98338548 71955,6950.166,96.106,574.235,569.828,0.0
49139.0,STARLINK-3057,PAYLOAD,2022-12-27 20:22:56,14.9833502,0.0003113,69.9998,319.0025,273.5855,86.4948,0.00017912,2.045e-05,0.0,0 STARLINK-3057,1 49139U 21082K   22361.84926288  .00002045  00000-0  17912-3 0  9994,2 49139  69.9998 319.0025 0003113 273.5855  86.4948 14.98335020 72037,6950.177,96.107,574.206,569.879,0.0
49139.0,STARLINK-3057,PAYLOAD,2022-12-28 01:11:19,14.98359336,0.0002751,69.9994,318.4974,266.9332,93.1512,-0.00018485,-2.3e-05,0.0,0 STARLINK-3057,1 49139U 21082K   22362.04953375 -.00002300  00000-0 -18485-3 0  9996,2 49139  69.9994 318.4974 0002751 266.9332  93.1512 14.98359336 72063,6950.102,96.105,573.879,570.055,0.0
49139.0,STARLINK-3057,PAYLOAD,2022-12-28 07:35:52,14.98339599,0.0002931999999999,70.0006,317.8241,266.0305,94.0519,0.00018408,2.105e-05,0.0,0 STARLINK-3057,1 49139U 21082K   22362.31657922  .00002105  00000-0  18408-3 0  9991,2 49139  70.0006 317.8241 0002932 266.0305  94.0519 14.98339599 72103,6950.163000000001,96.106,574.066,569.99,0.0
49139.0,STARLINK-3057,PAYLOAD,2022-12-29 07:37:54,14.98320182,0.0003052,70.0011,315.2994,272.2056,87.8754,-0.00027472,-3.369e-05,0.0,0 STARLINK-3057,1 49139U 21082K   22363.31799015 -.00003369  00000-0 -27472-3 0  9998,2 49139  70.0011 315.2994 0003052 272.2056  87.8754 14.98320182 72257,6950.223000000001,96.108,574.2090000000002,569.967,0.0
49139.0,STARLINK-3057,PAYLOAD,2022-12-29 14:02:27,14.98313016,0.0002728999999999,70.0005,314.6261,272.5374,87.5473,-4.7586e-05,-6.6e-06,0.0,0 STARLINK-3057,1 49139U 21082K   22363.58504325 -.00000660  00000-0 -47586-4 0  9995,2 49139  70.0005 314.6261 0002729 272.5374  87.5473 14.98313016 72293,6950.245,96.108,574.007,570.214,0.0
49139.0,STARLINK-3057,PAYLOAD,2022-12-30 04:27:39,14.98334102,0.0002522,70.0012,313.1081,276.9317,83.1555,-0.00019159,-2.378e-05,0.0,0 STARLINK-3057,1 49139U 21082K   22364.18587612 -.00002378  00000-0 -19159-3 0  9994,2 49139  70.0012 313.1081 0002522 276.9317  83.1555 14.98334102 72383,6950.18,96.107,573.798,570.2919999999998,0.0
49139.0,STARLINK-3057,PAYLOAD,2022-12-30 06:03:47,14.98334834,0.0002305,70.0016,312.9398,273.0797,87.0099,-0.00017883,-2.226e-05,0.0,0 STARLINK-3057,1 49139U 21082K   22364.25263560 -.00002226  00000-0 -17883-3 0  9999,2 49139  70.0016 312.9398 0002305 273.0797  87.0099 14.98334834 72393,6950.178000000001,96.107,573.645,570.441,0.0
49139.0,STARLINK-3057,PAYLOAD,2022-12-31 06:05:47,14.98346407,0.0003011,70.001,310.4178,271.3394,88.742,0.00070974,8.389e-05,0.0,0 STARLINK-3057,1 49139U 21082K   22365.25402613  .00008389  00000-0  70974-3 0  9998,2 49139  70.0010 310.4178 0003011 271.3394  88.7420 14.98346407 72547,6950.142,96.106,574.1,569.914,0.0
49139.0,STARLINK-3057,PAYLOAD,2022-12-31 07:41:55,14.98350521,0.0003018,70.001,310.2493,271.1419,88.9394,0.00080112,9.484e-05,0.0,0 STARLINK-3057,1 49139U 21082K   22365.32078505  .00009484  00000-0  80112-3 0  9997,2 49139  70.0010 310.2493 0003018 271.1419  88.9394 14.98350521 72553,6950.129,96.106,574.092,569.8969999999998,0.0
49139.0,STARLINK-3057,PAYLOAD,2022-12-31 14:06:27,14.9835392,0.0002992,70.0013,309.5758,271.3175,88.7641,0.00077142,9.129e-05,0.0,0 STARLINK-3057,1 49139U 21082K   22365.58782392  .00009129  00000-0  77142-3 0  9996,2 49139  70.0013 309.5758 0002992 271.3175  88.7641 14.98353920 72595,6950.119000000002,96.105,574.063,569.904,0.0
49139.0,STARLINK-3057,PAYLOAD,2023-01-01 06:07:47,14.98344821,0.0003082,70.0013,307.8924,272.3034,87.7772,-0.00026953,-3.309e-05,0.0,0 STARLINK-3057,1 49139U 21082K   23001.25541438 -.00003309  00000-0 -26953-3 0  9992,2 49139  70.0013 307.8924 0003082 272.3034  87.7772 14.98344821 72692,6950.147,96.106,574.154,569.87,0.0
49139.0,STARLINK-3057,PAYLOAD,2023-01-01 14:08:27,14.98341719,0.0003083999999999,70.0012,307.0507,271.6877,88.3929,-0.00024624,-3.031e-05,0.0,0 STARLINK-3057,1 49139U 21082K   23001.58921245 -.00003031  00000-0 -24624-3 0  9991,2 49139  70.0012 307.0507 0003084 271.6877  88.3929 14.98341719 72749,6950.156999999997,96.106,574.165,569.878,0.0
49139.0,STARLINK-3057,PAYLOAD,2023-01-02 02:57:32,14.98332512,0.0002971,70.0011,305.7046,271.7404,88.3415,-0.00027497,-3.373e-05,0.0,0 STARLINK-3057,1 49139U 21082K   23002.12329699 -.00003373  00000-0 -27497-3 0  9997,2 49139  70.0011 305.7046 0002971 271.7404  88.3415 14.98332512 72822,6950.185,96.107,574.115,569.985,0.0
49139.0,STARLINK-3057,PAYLOAD,2023-01-02 06:09:48,14.98332276,0.0003003999999999,70.0013,305.3678,272.4982,87.5833,-0.00022771,-2.809e-05,0.0,0 STARLINK-3057,1 49139U 21082K   23002.25681697 -.00002809  00000-0 -22771-3 0  9993,2 49139  70.0013 305.3678 0003004 272.4982  87.5833 14.98332276 72842,6950.186,96.107,574.139,569.9630000000002,0.0
49139.0,STARLINK-3057,PAYLOAD,2023-01-02 18:58:53,14.98329914,0.0003008,70.0013,304.0213,272.6764,87.4051,-6.6109e-05,-8.82e-06,0.0,0 STARLINK-3057,1 49139U 21082K   23002.79089891 -.00000882  00000-0 -66109-4 0  9993,2 49139  70.0013 304.0213 0003008 272.6764  87.4051 14.98329914 72922,6950.193,96.107,574.149,569.9680000000002,0.0
49139.0,STARLINK-3057,PAYLOAD,2023-01-03 06:11:50,14.98328267,0.0003097,70.001,302.843,272.9849,87.0955,-0.00010966,-1.401e-05,0.0,0 STARLINK-3057,1 49139U 21082K   23003.25822217 -.00001401  00000-0 -10966-3 0  9999,2 49139  70.0010 302.8430 0003097 272.9849  87.0955 14.98328267 72997,6950.198,96.107,574.216,569.911,0.0
49139.0,STARLINK-3057,PAYLOAD,2023-01-03 12:36:22,14.98328441,0.0003163,70.001,302.1696,272.4676,87.6121,0.00020185,2.316e-05,0.0,0 STARLINK-3057,1 49139U 21082K   23003.52526325  .00002316  00000-0  20185-3 0  9998,2 49139  70.0010 302.1696 0003163 272.4676  87.6121 14.98328441 73032,6950.198,96.107,574.261,569.864,0.0
49139.0,STARLINK-3057,PAYLOAD,2023-01-04 03:01:36,14.983192,0.0003114,69.9998,300.6554,271.7077,88.3725,0.00011019,1.222e-05,0.0,0 STARLINK-3057,1 49139U 21082K   23004.12611433  .00001222  00000-0  11019-3 0  9991,2 49139  69.9998 300.6554 0003114 271.7077  88.3725 14.98319200 73124,6950.226,96.108,574.256,569.927,0.0
49139.0,STARLINK-3057,PAYLOAD,2023-01-04 12:38:24,14.98328679,0.0002962,70.0004,299.6464,270.0666,90.0154,0.0002142,2.464e-05,0.0,0 STARLINK-3057,1 49139U 21082K   23004.52666901  .00002464  00000-0  21420-3 0  9991,2 49139  70.0004 299.6464 0002962 270.0666  90.0154 14.98328679 73180,6950.196999999999,96.107,574.121,570.003,0.0
49139.0,STARLINK-3057,PAYLOAD,2023-01-05 06:15:51,14.98352609,0.0003168999999999,70.0012,297.7929,272.1894,87.8902,0.00063105,7.449e-05,0.0,0 STARLINK-3057,1 49139U 21082K   23005.26101618  .00007449  00000-0  63105-3 0  9996,2 49139  70.0012 297.7929 0003169 272.1894  87.8902 14.98352609 73297,6950.123000000001,96.106,574.19,569.785,0.0
49139.0,STARLINK-3057,PAYLOAD,2023-01-05 12:40:23,14.98351753,0.0003121,70.0013,297.1195,273.8505,86.2297,0.00055114,6.493e-05,0.0,0 STARLINK-3057,1 49139U 21082K   23005.52805548  .00006493  00000-0  55114-3 0  9997,2 49139  70.0013 297.1195 0003121 273.8505  86.2297 14.98351753 73336,6950.126,96.106,574.16,569.821,0.0
49139.0,STARLINK-3057,PAYLOAD,2023-01-05 19:04:56,14.98351175,0.0002694,70.0016,296.4467,275.17400000000004,84.9111,0.00051457,6.055e-05,0.0,0 STARLINK-3057,1 49139U 21082K   23005.79509457  .00006055  00000-0  51457-3 0  9996,2 49139  70.0016 296.4467 0002694 275.1740  84.9111 14.98351175 73375,6950.127,96.106,573.865,570.12,0.0
49139.0,STARLINK-3057,PAYLOAD,2023-01-06 04:41:44,14.98334003,0.0003344,70.0017,295.4359,269.8342,90.2434,-3.145e-05,-4.68e-06,0.0,0 STARLINK-3057,1 49139U 21082K   23006.19565727 -.00000468  00000-0 -31450-4 0  9999,2 49139  70.0017 295.4359 0003344 269.8342  90.2434 14.98334003 73432,6950.181,96.107,574.37,569.721,0.0
49139.0,STARLINK-3057,PAYLOAD,2023-01-06 12:42:25,14.98321997,0.0003285,70.0025,294.5957,272.7602,87.3181,-0.00037776,-4.597e-05,0.0,0 STARLINK-3057,1 49139U 21082K   23006.52946279 -.00004597  00000-0 -37776-3 0  9994,2 49139  70.0025 294.5957 0003285 272.7602  87.3181 14.98321997 73480,6950.218000000002,96.108,574.366,569.799,0.0
